GLOBALSTAR M067         
1 32263U 07048A   24364.73658229 -.00000070  00000+0  20182-3 0  9999
2 32263  51.9700 171.7553 0001191  51.3846 321.8087 12.40663637788693
GLOBALSTAR M070         
1 32264U 07048B   24364.84071986 -.00000057  00000+0  25906-3 0  9995
2 32264  51.9758 284.4000 0000881  63.9325 331.9910 12.62308793793261
GLOBALSTAR M066         
1 32265U 07048C   24364.57051757 -.00000107  00000+0 -64735-4 0  9991
2 32265  51.9648 158.7631 0001635  98.5455 346.9196 12.42168989794306
GLOBALSTAR M068         
1 32266U 07048D   24364.54623147 -.00000073  00000+0  17256-3 0  9993
2 32266  51.9886  99.3738 0001788 122.5975 355.0118 12.62812769796124
GLOBALSTAR M079         
1 37188U 10054A   24364.58915457 -.00000070  00000+0  18844-3 0  9995
2 37188  52.0051 296.0726 0000465  32.0138 139.0434 12.62268948655037
GLOBALSTAR M074         
1 37189U 10054B   24364.53634037 -.00000076  00000+0  15451-3 0  9990
2 37189  52.0028 295.5807 0000832  51.1962 120.4072 12.62260696655631
GLOBALSTAR M076         
1 37190U 10054C   24364.31794985 -.00000077  00000+0  15106-3 0  9995
2 37190  52.0042 296.4021 0000772  29.0937 109.1468 12.62275356655324
GLOBALSTAR M077         
1 37191U 10054D   24364.59662612 -.00000047  00000+0  31404-3 0  9993
2 37191  52.0064 252.3629 0000938  65.6393 318.8173 12.62269157655739
